CHUANGXIN 16A (CX-16A)  
1 53586U 22102A   26068.83297444  .00003128  00000+0  20134-3 0  9993
2 53586  28.9941 256.1289 0005063  43.7318 316.3682 15.05552649194538
STARLINK-4566           
1 53693U 22105AX  26068.63345666 -.00004423  00000+0 -30233-3 0  9995
2 53693  97.6042 311.2454 0002388  82.4569 277.6929 15.05668872193307
